1 27391U 02012A   12028.72807533  .00004534  00000-0  11972-3 0  9994
2 27391 089.0067 234.6139 0014974 356.8151 003.3005 15.38095328551912
1 27391U 02012A   12029.76905509  .00004018  00000-0  10600-3 0  9995
2 27391 089.0072 234.4732 0014767 352.7518 007.3477 15.38101429552072
1 27391U 02012A   12030.87509190  .00003608  00000-0  95062-4 0  9995
2 27391 089.0074 234.3233 0014475 348.3654 011.7261 15.38108044552246
1 27391U 02012A   12031.78594098 +.00003535 +00000-0 +93135-4 0  9995
2 27391 089.0080 234.2000 0014256 344.9071 015.1747 15.38114138552389
1 27391U 02012A   12032.11124354  .00003598  00000-0  94801-4 0  9997
2 27391 089.0081 234.1562 0014205 343.6814 016.3994 15.38116722552431
1 27391U 02012A   12032.76184680 +.00003531 +00000-0 +92996-4 0  9996
2 27391 089.0081 234.0679 0014054 340.9390 019.1338 15.38120883552537
1 27391U 02012A   12033.41244858  .00003424  00000-0  90157-4 0  9991
2 27391 089.0082 233.9799 0013933 338.4228 021.6432 15.38124845552632
1 27391U 02012A   12033.73774888 +.00003423 +00000-0 +90131-4 0  9998
2 27391 089.0083 233.9361 0013891 337.0535 023.0115 15.38127178552688
1 27391U 02012A   12034.45340655  .00003548  00000-0  93451-4 0  9995
2 27391 089.0083 233.8391 0013669 334.3671 025.6913 15.38132864552798
1 27391U 02012A   12034.71364525 +.00003631 +00000-0 +95659-4 0  9991
2 27391 089.0085 233.8039 0013611 333.0287 027.0286 15.38135111552837
1 27391U 02012A   12035.49435923  .00003618  00000-0  95297-4 0  9991
2 27391 089.0085 233.6985 0013475 329.8753 030.1720 15.38140572552952
1 27391U 02012A   12035.75459689 +.00003557 +00000-0 +93674-4 0  9994
2 27391 089.0085 233.6632 0013381 328.6615 031.3829 15.38142031552990
1 27391U 02012A   12036.73048580  .00003500  00000-0  92156-4 0  9999
2 27391 089.0082 233.5311 0013123 324.2370 035.8025 15.38148561553143
1 27391U 02012A   12037.90154525 +.00003611 +00000-0 +95069-4 0  9995
2 27391 089.0082 233.3726 0012911 319.1153 040.9149 15.38157520553326
1 27391U 02012A   12038.16177973  .00003602  00000-0  94828-4 0  9998
2 27391 089.0082 233.3374 0012873 318.0563 041.9698 15.38159264553366
1 27391U 02012A   12038.74730719 +.00003530 +00000-0 +92918-4 0  9993
2 27391 089.0079 233.2583 0012790 315.4226 044.5984 15.38162875553457
1 27391U 02012A   12039.46295071  .00003320  00000-0  87317-4 0  9994
2 27391 089.0074 233.1612 0012666 312.2373 047.7800 15.38166632553563
1 27391U 02012A   12039.72318413 +.00003291 +00000-0 +86558-4 0  9992
2 27391 089.0072 233.1261 0012628 310.9938 049.0227 15.38168226553605
1 27391U 02012A   12040.76411320  .00003395  00000-0  89314-4 0  9997
2 27391 089.0072 232.9852 0012455 306.2172 053.7933 15.38175891553763
1 27391U 02012A   12041.73998101 +.00003357 +00000-0 +88284-4 0  9995
2 27391 089.0070 232.8530 0012348 301.9834 058.0202 15.38181949553916
1 27391U 02012A   12042.13032740  .00003234  00000-0  85006-4 0  9991
2 27391 089.0070 232.8002 0012273 300.1642 059.8369 15.38183819553972
1 27391U 02012A   12042.78090395 +.00003065 +00000-0 +80507-4 0  9995
2 27391 089.0069 232.7122 0012193 297.1796 062.8207 15.38187069554076
1 27391U 02012A   12043.43147831  .00002985  00000-0  78385-4 0  9997
2 27391 089.0072 232.6240 0012062 293.8632 066.1371 15.38190874554175
1 27391U 02012A   12043.75676473 +.00002987 +00000-0 +78426-4 0  9999
2 27391 089.0074 232.5798 0012047 292.3840 067.6145 15.38192826554222
1 27391U 02012A   12044.73262179  .00003122  00000-0  82000-4 0  9997
2 27391 089.0081 232.4477 0012006 288.1273 071.8688 15.38199255554379
1 27391U 02012A   12045.77353198  .00003135  00000-0  82321-4 0  9994
2 27391 089.0084 232.3071 0011869 282.9654 077.0302 15.38205764554534
1 27391U 02012A   12046.68432271 +.00003475 +00000-0 +91342-4 0  9995
2 27391 089.0089 232.1841 0011800 278.0531 081.9429 15.38213657554676
1 27391U 02012A   12047.07466018  .00003786  00000-0  99596-4 0  9999
2 27391 089.0089 232.1312 0011705 276.3038 083.6944 15.38217990554738
1 27391U 02012A   12047.72521964 +.00004156 +00000-0 +10939-3 0  9998
2 27391 089.0091 232.0430 0011784 273.4317 086.5632 15.38224916554839
1 27391U 02012A   12048.11555429  .00004335  00000-0  11411-3 0  9990
2 27391 089.0090 231.9906 0011724 271.6910 088.3028 15.38228982554899
1 27391U 02012A   12048.76611038 +.00004449 +00000-0 +11713-3 0  9991
2 27391 089.0088 231.9028 0011728 268.4792 091.5133 15.38235101554992
1 27391U 02012A   12049.41666424  .00004435  00000-0  11674-3 0  9994
2 27391 089.0087 231.8146 0011668 265.1885 094.8031 15.38240769555092
1 27391U 02012A   12049.74194062 +.00004324 +00000-0 +11379-3 0  9993
2 27391 089.0085 231.7707 0011657 263.9426 096.0474 15.38243014555144
1 27391U 02012A   12050.45754795  .00004041  00000-0  10626-3 0  9998
2 27391 089.0084 231.6737 0011648 260.5932 099.3980 15.38247458555256
1 27391U 02012A   12050.78282334 +.00003891 +00000-0 +10229-3 0  9990
2 27391 089.0084 231.6297 0011636 259.0610 100.9305 15.38249245555302
1 27391U 02012A   12051.49842773  .00003667  00000-0  96324-4 0  9990
2 27391 089.0081 231.5330 0011677 255.2158 104.7808 15.38253670555415
1 27391U 02012A   12051.75864664 +.00003711 +00000-0 +97468-4 0  9992
2 27391 089.0083 231.4978 0011675 254.0233 105.9746 15.38255778555452
1 27391U 02012A   12052.73446246  .00004070  00000-0  10696-3 0  9999
2 27391 089.0082 231.3657 0011722 248.4982 111.5039 15.38265240555605
1 27391U 02012A   12053.71027302 +.00004351 +00000-0 +11439-3 0  9994
2 27391 089.0080 231.2331 0011758 244.3367 115.6669 15.38274648555754
1 27391U 02012A   12054.10059620  .00004325  00000-0  11368-3 0  9998
2 27391 089.0080 231.1805 0011763 242.4217 117.5835 15.38277803555817
1 27391U 02012A   12054.75113328 +.00004121 +00000-0 +10825-3 0  9996
2 27391 089.0080 231.0927 0011830 239.0087 120.9967 15.38282101555915
1 27391U 02012A   12055.40166911  .00003966  00000-0  10413-3 0  9994
2 27391 089.0079 231.0045 0011875 235.7011 124.3113 15.38286723556010
1 27391U 02012A   12055.72693610 +.00003896 +00000-0 +10227-3 0  9995
2 27391 089.0079 230.9603 0011874 234.2108 125.8033 15.38288945556068
1 27391U 02012A   12056.70273414  .00003809  00000-0  99926-4 0  9998
2 27391 089.0080 230.8279 0011909 230.0153 130.0049 15.38295941556217
1 27391U 02012A   12057.74358068  .00003719  00000-0  97520-4 0  9990
2 27391 089.0083 230.6872 0012029 225.4264 134.6007 15.38303172556379
1 27391U 02012A   12058.78442071  .00004003  00000-0  10499-3 0  9999
2 27391 089.0085 230.5464 0012140 220.3576 139.6809 15.38312687556535
1 27391U 02012A   12059.76020111 +.00004455 +00000-0 +11693-3 0  9993
2 27391 089.0089 230.4139 0012271 216.1108 143.9348 15.38323062556687
1 27391U 02012A   12060.08545990  .00004510  00000-0  11835-3 0  9997
2 27391 089.0088 230.3699 0012286 214.5700 145.4762 15.38326147556732
1 27391U 02012A   12060.67092428 +.00004691 +00000-0 +12311-3 0  9995
2 27391 089.0088 230.2908 0012409 212.1484 147.9031 15.38332341556823
1 27391U 02012A   12061.38648846  .00004856  00000-0  12743-3 0  9997
2 27391 089.0090 230.1940 0012457 208.6965 151.3616 15.38340097556935
1 27391U 02012A   12061.64669291 +.00004910 +00000-0 +12886-3 0  9992
2 27391 089.0090 230.1589 0012544 207.5608 152.5002 15.38342865556974
1 27391U 02012A   12062.81760668 +.00005159 +00000-0 +13535-3 0  9990
2 27391 089.0092 230.0004 0012741 202.1704 157.9010 15.38355706557151
1 27391U 02012A   12063.79336219 +.00005043 +00000-0 +13224-3 0  9996
2 27391 089.0092 229.8686 0012896 198.0771 162.0022 15.38364919557304
1 27391U 02012A   12064.76911098 +.00005127 +00000-0 +13442-3 0  9993
2 27391 089.0091 229.7368 0013065 193.8381 166.2532 15.38375420557455
1 27391U 02012A   12065.74485191 +.00005449 +00000-0 +14283-3 0  9993
2 27391 089.0093 229.6049 0013302 189.5090 170.5921 15.38387208557609
1 27391U 02012A   12066.39534308  .00005385  00000-0  14112-3 0  9990
2 27391 089.0091 229.5170 0013392 186.8669 173.2409 15.38393811557701
1 27391U 02012A   12066.72058744 +.00005318 +00000-0 +13932-3 0  9997
2 27391 089.0092 229.4731 0013483 185.4507 174.6581 15.38396778557757
1 27391U 02012A   12067.43612310  .00005318  00000-0  13927-3 0  9995
2 27391 089.0090 229.3762 0013555 182.4070 177.7139 15.38404612557862
1 27391U 02012A   12067.69631661 +.00005406 +00000-0 +14158-3 0  9998
2 27391 089.0093 229.3411 0013625 181.3629 178.7615 15.38407822557903
1 27391U 02012A   12068.67203506  .00006048  00000-0  15840-3 0  9992
2 27391 089.0094 229.2090 0013858 177.3296 182.8062 15.38422300558056
1 27391U 02012A   12069.71279285  .00006509  00000-0  17046-3 0  9997
2 27391 089.0093 229.0683 0013949 173.2796 186.8665 15.38437330558212
1 27391U 02012A   12070.68849285 +.00007115 +00000-0 +18626-3 0  9997
2 27391 089.0098 228.9369 0014207 169.4440 190.7175 15.38453754558361
1 27391U 02012A   12071.07876969  .00007442  00000-0  19482-3 0  9994
2 27391 089.0101 228.8845 0014345 167.4438 192.7250 15.38461095558422
1 27391U 02012A   12071.66418067 +.00007750 +00000-0 +20283-3 0  9993
2 27391 089.0105 228.8051 0014448 165.5254 194.6431 15.38471363558515
1 27391U 02012A   12072.37968136  .00007579  00000-0  19825-3 0  9998
2 27391 089.0105 228.7086 0014510 162.7036 197.4684 15.38481005558626
1 27391U 02012A   12072.90004414 +.00007087 +00000-0 +18530-3 0  9993
2 27391 089.0110 228.6383 0014739 160.8977 199.2779 15.38485849558701
1 27391U 02012A   12073.48545048  .00006519  00000-0  17034-3 0  9997
2 27391 089.0112 228.5595 0014767 158.4630 201.7201 15.38491175558794
1 27391U 02012A   12073.74563049 +.00006322 +00000-0 +16515-3 0  9992
2 27391 089.0112 228.5243 0014837 157.3586 202.8303 15.38493693558837
1 27391U 02012A   12074.72129828  .00006086  00000-0  15888-3 0  9993
2 27391 089.0116 228.3928 0014999 153.9648 206.2360 15.38504872558988
1 27391U 02012A   12075.76200215  .00006163  00000-0  16081-3 0  9990
2 27391 089.0115 228.2522 0015170 150.1182 210.0931 15.38517642559145
1 27391U 02012A   12076.73765383 +.00006267 +00000-0 +16347-3 0  9990
2 27391 089.0113 228.1207 0015302 146.4784 213.7472 15.38530488559294
